IRIDIUM 150             
1 43257U 18030J   25285.74897355  .00000006  00000+0 -50728-5 0  9996
2 43257  86.4002  33.8892 0001949  89.6264 270.5155 14.34218458394690
IRIDIUM 143             
1 43258U 18030K   25285.59040068  .00000421  00000+0  14313-3 0  9999
2 43258  86.4005  34.0381 0001918  84.4646 275.6769 14.34222576394607
IRIDIUM 161             
1 43478U 18047C   25285.44992439  .00000544  00000+0  15572-3 0  9997
2 43478  86.4561 191.9581 0002311  85.4461 274.7004 14.43281509389402
IRIDIUM 152             
1 43479U 18047D   25285.98173937  .00000222  00000+0  72146-4 0  9995
2 43479  86.4035 191.5971 0002280  85.1758 274.9698 14.34218027387054
IRIDIUM 147             
1 43480U 18047E   25285.98808084  .00000164  00000+0  51419-4 0  9990
2 43480  86.4037 191.5953 0002158  85.9231 274.2212 14.34217964387050
IRIDIUM 110             
1 43481U 18047F   25285.99442542  .00000233  00000+0  76089-4 0  9992
2 43481  86.4037 191.6779 0002421  93.0988 267.0485 14.34217507387044
IRIDIUM 162             
1 43482U 18047G   25285.44361503  .00000538  00000+0  15407-3 0  9994
2 43482  86.4559 191.8549 0002481  83.9677 276.1807 14.43283148389393
IRIDIUM 160             
1 43569U 18061A   25285.94025838  .00000346  00000+0  11646-3 0  9997
2 43569  86.4015 160.1454 0002128  91.0718 269.0721 14.34220718377931
